CCSDS_OMM_VERS = 2.0
CREATION_DATE  = 
ORIGINATOR     = 

OBJECT_NAME    = PROGRESS-MS 32
OBJECT_ID      = 2025-204A
CENTER_NAME    = EARTH
REF_FRAME      = TEME
TIME_SYSTEM    = UTC
MEAN_ELEMENT_THEORY = SGP/SGP4

EPOCH          = 2025-11-19T07:39:24.985152
MEAN_MOTION    = 15.49817487
ECCENTRICITY   = .00041444
INCLINATION    = 51.6333
RA_OF_ASC_NODE = 258.3957
ARG_OF_PERICENTER = 86.8503
MEAN_ANOMALY   = 273.2960

EPHEMERIS_TYPE = 0
CLASSIFICATION_TYPE = U
NORAD_CAT_ID   = 65586
ELEMENT_SET_NO = 999
REV_AT_EPOCH   = 27
BSTAR          = .26247255E-3
MEAN_MOTION_DOT = .14458E-3
MEAN_MOTION_DDOT = 0

CCSDS_OMM_VERS = 2.0
CREATION_DATE  = 
ORIGINATOR     = 

OBJECT_NAME    = CYGNUS NG-23
OBJECT_ID      = 2025-208A
CENTER_NAME    = EARTH
REF_FRAME      = TEME
TIME_SYSTEM    = UTC
MEAN_ELEMENT_THEORY = SGP/SGP4

EPOCH          = 2025-11-19T07:39:24.985152
MEAN_MOTION    = 15.49817487
ECCENTRICITY   = .00041444
INCLINATION    = 51.6333
RA_OF_ASC_NODE = 258.3957
ARG_OF_PERICENTER = 86.8503
MEAN_ANOMALY   = 273.2960

EPHEMERIS_TYPE = 0
CLASSIFICATION_TYPE = U
NORAD_CAT_ID   = 65616
ELEMENT_SET_NO = 999
REV_AT_EPOCH   = 22
BSTAR          = .26247255E-3
MEAN_MOTION_DOT = .14458E-3
MEAN_MOTION_DDOT = 0

CCSDS_OMM_VERS = 2.0
CREATION_DATE  = 
ORIGINATOR     = 

OBJECT_NAME    = DRAGONFLY
OBJECT_ID      = 1998-067XH
CENTER_NAME    = EARTH
REF_FRAME      = TEME
TIME_SYSTEM    = UTC
MEAN_ELEMENT_THEORY = SGP/SGP4

EPOCH          = 2025-11-19T12:53:28.325760
MEAN_MOTION    = 15.64505751
ECCENTRICITY   = .0005711
INCLINATION    = 51.6291
RA_OF_ASC_NODE = 253.8535
ARG_OF_PERICENTER = 151.4665
MEAN_ANOMALY   = 208.6643

EPHEMERIS_TYPE = 0
CLASSIFICATION_TYPE = U
NORAD_CAT_ID   = 65729
ELEMENT_SET_NO = 999
REV_AT_EPOCH   = 952
BSTAR          = .11986E-2
MEAN_MOTION_DOT = .119007E-2
MEAN_MOTION_DDOT = 0

CCSDS_OMM_VERS = 2.0
CREATION_DATE  = 
ORIGINATOR     = 

OBJECT_NAME    = 1998-067XJ
OBJECT_ID      = 1998-067XJ
CENTER_NAME    = EARTH
REF_FRAME      = TEME
TIME_SYSTEM    = UTC
MEAN_ELEMENT_THEORY = SGP/SGP4

EPOCH          = 2025-11-18T20:35:54.876192
MEAN_MOTION    = 15.82966684
ECCENTRICITY   = .00118894
INCLINATION    = 51.6228
RA_OF_ASC_NODE = 254.5433
ARG_OF_PERICENTER = 144.3757
MEAN_ANOMALY   = 215.8041

EPHEMERIS_TYPE = 0
CLASSIFICATION_TYPE = U
NORAD_CAT_ID   = 65730
ELEMENT_SET_NO = 999
REV_AT_EPOCH   = 945
BSTAR          = .23955511E-2
MEAN_MOTION_DOT = .558185E-2
MEAN_MOTION_DDOT = 0

CCSDS_OMM_VERS = 2.0
CREATION_DATE  = 
ORIGINATOR     = 

OBJECT_NAME    = 1998-067XK
OBJECT_ID      = 1998-067XK
CENTER_NAME    = EARTH
REF_FRAME      = TEME
TIME_SYSTEM    = UTC
MEAN_ELEMENT_THEORY = SGP/SGP4

EPOCH          = 2025-11-19T20:21:28.708416
MEAN_MOTION    = 15.61108312
ECCENTRICITY   = .0005928
INCLINATION    = 51.6312
RA_OF_ASC_NODE = 252.9365
ARG_OF_PERICENTER = 127.9460
MEAN_ANOMALY   = 232.2070

EPHEMERIS_TYPE = 0
CLASSIFICATION_TYPE = U
NORAD_CAT_ID   = 65731
ELEMENT_SET_NO = 999
REV_AT_EPOCH   = 956
BSTAR          = .84528E-3
MEAN_MOTION_DOT = .72887E-3
MEAN_MOTION_DDOT = 0

CCSDS_OMM_VERS = 2.0
CREATION_DATE  = 
ORIGINATOR     = 

OBJECT_NAME    = RSP-03
OBJECT_ID      = 1998-067XL
CENTER_NAME    = EARTH
REF_FRAME      = TEME
TIME_SYSTEM    = UTC
MEAN_ELEMENT_THEORY = SGP/SGP4

EPOCH          = 2025-11-19T02:49:38.269056
MEAN_MOTION    = 15.62620166
ECCENTRICITY   = .00066912
INCLINATION    = 51.6296
RA_OF_ASC_NODE = 256.3049
ARG_OF_PERICENTER = 126.9731
MEAN_ANOMALY   = 233.1877

EPHEMERIS_TYPE = 0
CLASSIFICATION_TYPE = U
NORAD_CAT_ID   = 65732
ELEMENT_SET_NO = 999
REV_AT_EPOCH   = 946
BSTAR          = .10349081E-2
MEAN_MOTION_DOT = .95057E-3
MEAN_MOTION_DDOT = 0

CCSDS_OMM_VERS = 2.0
CREATION_DATE  = 
ORIGINATOR     = 

OBJECT_NAME    = GHS-01
OBJECT_ID      = 1998-067XM
CENTER_NAME    = EARTH
REF_FRAME      = TEME
TIME_SYSTEM    = UTC
MEAN_ELEMENT_THEORY = SGP/SGP4

EPOCH          = 2025-11-19T20:05:01.706784
MEAN_MOTION    = 15.65904685
ECCENTRICITY   = .0006213
INCLINATION    = 51.6299
RA_OF_ASC_NODE = 252.1081
ARG_OF_PERICENTER = 151.1327
MEAN_ANOMALY   = 209.0013

EPHEMERIS_TYPE = 0
CLASSIFICATION_TYPE = U
NORAD_CAT_ID   = 65733
ELEMENT_SET_NO = 999
REV_AT_EPOCH   = 958
BSTAR          = .12405E-2
MEAN_MOTION_DOT = .130471E-2
MEAN_MOTION_DDOT = 0

CCSDS_OMM_VERS = 2.0
CREATION_DATE  = 
ORIGINATOR     = 

OBJECT_NAME    = YOTSUBA-KULOVER
OBJECT_ID      = 1998-067XN
CENTER_NAME    = EARTH
REF_FRAME      = TEME
TIME_SYSTEM    = UTC
MEAN_ELEMENT_THEORY = SGP/SGP4

EPOCH          = 2025-11-19T14:46:13.065600
MEAN_MOTION    = 15.55966732
ECCENTRICITY   = .00024755
INCLINATION    = 51.6314
RA_OF_ASC_NODE = 255.8771
ARG_OF_PERICENTER = 95.9910
MEAN_ANOMALY   = 264.1363

EPHEMERIS_TYPE = 0
CLASSIFICATION_TYPE = U
NORAD_CAT_ID   = 65941
ELEMENT_SET_NO = 999
REV_AT_EPOCH   = 625
BSTAR          = .87011795E-3
MEAN_MOTION_DOT = .61616E-3
MEAN_MOTION_DDOT = 0

CCSDS_OMM_VERS = 2.0
CREATION_DATE  = 
ORIGINATOR     = 

OBJECT_NAME    = BOTAN
OBJECT_ID      = 1998-067XP
CENTER_NAME    = EARTH
REF_FRAME      = TEME
TIME_SYSTEM    = UTC
MEAN_ELEMENT_THEORY = SGP/SGP4

EPOCH          = 2025-11-19T00:24:31.120704
MEAN_MOTION    = 15.57684723
ECCENTRICITY   = .00047323
INCLINATION    = 51.6310
RA_OF_ASC_NODE = 258.6311
ARG_OF_PERICENTER = 102.1382
MEAN_ANOMALY   = 258.0140

EPHEMERIS_TYPE = 0
CLASSIFICATION_TYPE = U
NORAD_CAT_ID   = 65942
ELEMENT_SET_NO = 999
REV_AT_EPOCH   = 616
BSTAR          = .10517619E-2
MEAN_MOTION_DOT = .79738E-3
MEAN_MOTION_DDOT = 0

CCSDS_OMM_VERS = 2.0
CREATION_DATE  = 
ORIGINATOR     = 

OBJECT_NAME    = E-KAGAKU-1
OBJECT_ID      = 1998-067XQ
CENTER_NAME    = EARTH
REF_FRAME      = TEME
TIME_SYSTEM    = UTC
MEAN_ELEMENT_THEORY = SGP/SGP4

EPOCH          = 2025-11-19T02:25:46.666848
MEAN_MOTION    = 15.55879979
ECCENTRICITY   = .00040575
INCLINATION    = 51.6322
RA_OF_ASC_NODE = 258.4445
ARG_OF_PERICENTER = 83.1907
MEAN_ANOMALY   = 276.9545

EPHEMERIS_TYPE = 0
CLASSIFICATION_TYPE = U
NORAD_CAT_ID   = 65943
ELEMENT_SET_NO = 999
REV_AT_EPOCH   = 617
BSTAR          = .81780823E-3
MEAN_MOTION_DOT = .57677E-3
MEAN_MOTION_DDOT = 0

CCSDS_OMM_VERS = 2.0
CREATION_DATE  = 
ORIGINATOR     = 

OBJECT_NAME    = HTV-X1
OBJECT_ID      = 2025-241A
CENTER_NAME    = EARTH
REF_FRAME      = TEME
TIME_SYSTEM    = UTC
MEAN_ELEMENT_THEORY = SGP/SGP4

EPOCH          = 2025-11-19T07:39:24.985152
MEAN_MOTION    = 15.49817487
ECCENTRICITY   = .00041444
INCLINATION    = 51.6333
RA_OF_ASC_NODE = 258.3957
ARG_OF_PERICENTER = 86.8503
MEAN_ANOMALY   = 273.2960

EPHEMERIS_TYPE = 0
CLASSIFICATION_TYPE = U
NORAD_CAT_ID   = 66174
ELEMENT_SET_NO = 999
REV_AT_EPOCH   = 145
BSTAR          = .26247255E-3
MEAN_MOTION_DOT = .14458E-3
MEAN_MOTION_DDOT = 0

